GSAT0222 (GALILEO 26)   
1 43565U 18060B   22317.68050074 -.00000092  00000+0  00000+0 0  9993
2 43565  57.2226  17.1532 0004259 267.4112  92.5978  1.70476227 26858
GSAT0219 (GALILEO 23)   
1 43566U 18060C   22317.90103988 -.00000091  00000+0  00000+0 0  9991
2 43566  57.2231  17.1492 0003899 266.7047  93.3085  1.70476273 26835
GSAT0220 (GALILEO 24)   
1 43567U 18060D   22319.29443675 -.00000086  00000+0  00000+0 0  9990
2 43567  57.2232  17.1122 0004762 264.6266  95.3767  1.70476248 26849
BEIDOU-3 M13            
1 43622U 18072A   22319.37061446  .00000050  00000+0  00000+0 0  9996
2 43622  55.5721 106.2864 0004122 280.0632  80.1749  1.86231476 28266
BEIDOU-3 M14            
1 43623U 18072B   22319.23681662  .00000049  00000+0  00000+0 0  9998
2 43623  55.5736 106.2835 0002152 334.4899  26.2847  1.86231483 28269
GPS BIII-1              
1 43873U 18109A   22319.24387699  .00000073  00000+0  00000+0 0  9997
2 43873  55.1182 143.9420 0021660 187.2384 172.5570  2.00556303 28797
METEOR-M2 2             
1 44387U 19038A   22319.53130096  .00000043  00000+0  38391-4 0  9995
2 44387  98.7441 279.2403 0001321 148.5469 211.5779 14.23730468174903
GPS BIII-2              
1 44506U 19056A   22319.50865090 -.00000092  00000+0  00000+0 0  9990
2 44506  55.7401  23.0501 0029611 184.5129 266.8595  2.00559433 23808
BEIDOU-3 M23            
1 44542U 19061A   22319.07892247 -.00000012  00000+0  00000+0 0  9994
2 44542  54.5447 227.0004 0008937 348.0916  11.9410  1.86231596 21395
BEIDOU-3 M24            
1 44543U 19061B   22319.48714073 -.00000013  00000+0  00000+0 0  9991
2 44543  54.5447 226.9550 0006026 333.6987 211.5233  1.86231875 21396
BEIDOU-3 M21            
1 44793U 19078A   22318.65944918 -.00000082  00000+0  10000-3 0  9998
2 44793  54.9126 345.4443 0005338   0.5635 182.5332  1.86232186 20240
BEIDOU-3 M22            
1 44794U 19078B   22319.11207957 -.00000079  00000+0  00000+0 0  9997
2 44794  54.8867 345.4173 0003442 350.2515  48.2376  1.86232653 20254
ELEKTRO-L 3             
1 44903U 19095A   22319.47285894 -.00000086  00000+0  00000+0 0  9991
2 44903   0.0144 328.9547 0001488 249.1767  82.7122  1.00271937 10571
GPS BIII-3              
1 45854U 20041A   22319.36528176 -.00000008  00000+0  00000+0 0  9995
2 45854  55.6417  80.3241 0028486 180.6577 106.5065  2.00568520 17768
GPS BIII-4              
1 46826U 20078A   22319.25442591 -.00000021  00000+0  00000+0 0  9994
2 46826  54.4747 263.9741 0024332 191.0470 352.6551  2.00565289 15232
GSAT0223 (GALILEO 27)   
1 49809U 21116A   22319.15348696 -.00000087  00000+0  00000+0 0  9994
2 49809  57.2155  17.0136 0003562 217.1874 146.4247  1.70476417  5854
GSAT0224 (GALILEO 28)   
1 49810U 21116B   22319.55488115 -.00000086  00000+0  00000+0 0  9990
2 49810  57.2163  17.0009 0002765 212.7119 149.7222  1.70476375  5886
